[
  {
    "OBJECT_NAME": "STARLINK-1019",
    "OBJECT_ID": "19074M",
    "EPOCH": "2025-11-11T08:00:03.000384",
    "MEAN_MOTION": 15.33995793,
    "ECCENTRICITY": 0.0001274,
    "INCLINATION": 53.055,
    "RA_OF_ASC_NODE": 356.3882,
    "ARG_OF_PERICENTER": 77.8027,
    "MEAN_ANOMALY": 95.6114,
    "EPHEMERIS_TYPE": 0,
    "CLASSIFICATION_TYPE": "U",
    "NORAD_CAT_ID": 44724,
    "ELEMENT_SET_NO": 999,
    "REV_AT_EPOCH": 561,
    "BSTAR": 0.042932,
    "MEAN_MOTION_DOT": 0.01572426,
    "MEAN_MOTION_DDOT": 0.0,
    "TLE_LINE1": "1 44724U 19074M   25315.33336806  .01572426  00000+0  42932-1 0  9997",
    "TLE_LINE2": "2 44724  53.0550 356.3882 0001274  77.8027  95.6114 15.33995793  5613",
    "COMMENT": "Grouped by shell and plane from TLE"
  },
  {
    "OBJECT_NAME": "STARLINK-3269",
    "OBJECT_ID": "21125AQ",
    "EPOCH": "2025-11-11T06:41:52.460160",
    "MEAN_MOTION": 15.52214613,
    "ECCENTRICITY": 0.0003885,
    "INCLINATION": 53.22,
    "RA_OF_ASC_NODE": 355.5899,
    "ARG_OF_PERICENTER": 21.2046,
    "MEAN_ANOMALY": 338.9126,
    "EPHEMERIS_TYPE": 0,
    "CLASSIFICATION_TYPE": "U",
    "NORAD_CAT_ID": 50194,
    "ELEMENT_SET_NO": 999,
    "REV_AT_EPOCH": 21969,
    "BSTAR": 0.0011685,
    "MEAN_MOTION_DOT": 0.00072277,
    "MEAN_MOTION_DDOT": 0.0,
    "TLE_LINE1": "1 50194U 21125AQ  25315.27907940  .00072277  00000+0  11685-2 0  9991",
    "TLE_LINE2": "2 50194  53.2200 355.5899 0003885  21.2046 338.9126 15.52214613219695",
    "COMMENT": "Grouped by shell and plane from TLE"
  },
  {
    "OBJECT_NAME": "STARLINK-30562",
    "OBJECT_ID": "23156F",
    "EPOCH": "2025-11-11T02:56:28.610304",
    "MEAN_MOTION": 15.30185986,
    "ECCENTRICITY": 0.0001495,
    "INCLINATION": 53.1609,
    "RA_OF_ASC_NODE": 358.6293,
    "ARG_OF_PERICENTER": 64.1019,
    "MEAN_ANOMALY": 296.0136,
    "EPHEMERIS_TYPE": 0,
    "CLASSIFICATION_TYPE": "U",
    "NORAD_CAT_ID": 58033,
    "ELEMENT_SET_NO": 999,
    "REV_AT_EPOCH": 11688,
    "BSTAR": 0.00019635,
    "MEAN_MOTION_DOT": 5.458e-05,
    "MEAN_MOTION_DDOT": 0.0,
    "TLE_LINE1": "1 58033U 23156F   25315.12255336  .00005458  00000+0  19635-3 0  9997",
    "TLE_LINE2": "2 58033  53.1609 358.6293 0001495  64.1019 296.0136 15.30185986116888",
    "COMMENT": "Grouped by shell and plane from TLE"
  },
  {
    "OBJECT_NAME": "STARLINK-30533",
    "OBJECT_ID": "23156K",
    "EPOCH": "2025-11-11T06:47:09.125664",
    "MEAN_MOTION": 15.30214148,
    "ECCENTRICITY": 0.0004201,
    "INCLINATION": 53.1586,
    "RA_OF_ASC_NODE": 358.1925,
    "ARG_OF_PERICENTER": 7.1728,
    "MEAN_ANOMALY": 352.9333,
    "EPHEMERIS_TYPE": 0,
    "CLASSIFICATION_TYPE": "U",
    "NORAD_CAT_ID": 58037,
    "ELEMENT_SET_NO": 999,
    "REV_AT_EPOCH": 11690,
    "BSTAR": 0.00017050000000000002,
    "MEAN_MOTION_DOT": 4.695e-05,
    "MEAN_MOTION_DDOT": 0.0,
    "TLE_LINE1": "1 58037U 23156K   25315.28274451  .00004695  00000+0  17050-3 0  9998",
    "TLE_LINE2": "2 58037  53.1586 358.1925 0004201   7.1728 352.9333 15.30214148116902",
    "COMMENT": "Grouped by shell and plane from TLE"
  },
  {
    "OBJECT_NAME": "STARLINK-30555",
    "OBJECT_ID": "23156N",
    "EPOCH": "2025-11-11T06:36:30.181248",
    "MEAN_MOTION": 15.30233158,
    "ECCENTRICITY": 0.000107,
    "INCLINATION": 53.1592,
    "RA_OF_ASC_NODE": 358.1652,
    "ARG_OF_PERICENTER": 97.2689,
    "MEAN_ANOMALY": 262.8434,
    "EPHEMERIS_TYPE": 0,
    "CLASSIFICATION_TYPE": "U",
    "NORAD_CAT_ID": 58040,
    "ELEMENT_SET_NO": 999,
    "REV_AT_EPOCH": 11690,
    "BSTAR": 0.0010115,
    "MEAN_MOTION_DOT": 0.00029748,
    "MEAN_MOTION_DDOT": 0.0,
    "TLE_LINE1": "1 58040U 23156N   25315.27534932  .00029748  00000+0  10115-2 0  9994",
    "TLE_LINE2": "2 58040  53.1592 358.1652 0001070  97.2689 262.8434 15.30233158116900",
    "COMMENT": "Grouped by shell and plane from TLE"
  },
  {
    "OBJECT_NAME": "STARLINK-30547",
    "OBJECT_ID": "23156S",
    "EPOCH": "2025-11-11T06:51:41.711616",
    "MEAN_MOTION": 15.30189865,
    "ECCENTRICITY": 0.0001285,
    "INCLINATION": 53.1615,
    "RA_OF_ASC_NODE": 358.1846,
    "ARG_OF_PERICENTER": 104.7435,
    "MEAN_ANOMALY": 255.3708,
    "EPHEMERIS_TYPE": 0,
    "CLASSIFICATION_TYPE": "U",
    "NORAD_CAT_ID": 58044,
    "ELEMENT_SET_NO": 999,
    "REV_AT_EPOCH": 11690,
    "BSTAR": 4.9974000000000006e-05,
    "MEAN_MOTION_DOT": 1.121e-05,
    "MEAN_MOTION_DDOT": 0.0,
    "TLE_LINE1": "1 58044U 23156S   25315.28589944  .00001121  00000+0  49974-4 0  9994",
    "TLE_LINE2": "2 58044  53.1615 358.1846 0001285 104.7435 255.3708 15.30189865116902",
    "COMMENT": "Grouped by shell and plane from TLE"
  },
  {
    "OBJECT_NAME": "STARLINK-30548",
    "OBJECT_ID": "23156U",
    "EPOCH": "2025-11-11T06:44:07.068768",
    "MEAN_MOTION": 15.30189746,
    "ECCENTRICITY": 0.0001069,
    "INCLINATION": 53.1603,
    "RA_OF_ASC_NODE": 358.2043,
    "ARG_OF_PERICENTER": 49.7795,
    "MEAN_ANOMALY": 310.3299,
    "EPHEMERIS_TYPE": 0,
    "CLASSIFICATION_TYPE": "U",
    "NORAD_CAT_ID": 58046,
    "ELEMENT_SET_NO": 999,
    "REV_AT_EPOCH": 11685,
    "BSTAR": 0.0,
    "MEAN_MOTION_DOT": -1.029e-05,
    "MEAN_MOTION_DDOT": 0.0,
    "TLE_LINE1": "1 58046U 23156U   25315.28063737 -.00001029  00000+0 -22632-4 0  9994",
    "TLE_LINE2": "2 58046  53.1603 358.2043 0001069  49.7795 310.3299 15.30189746116857",
    "COMMENT": "Grouped by shell and plane from TLE"
  },
  {
    "OBJECT_NAME": "STARLINK-30529",
    "OBJECT_ID": "23156V",
    "EPOCH": "2025-11-11T04:15:30.024576",
    "MEAN_MOTION": 15.30215114,
    "ECCENTRICITY": 0.0001241,
    "INCLINATION": 53.1611,
    "RA_OF_ASC_NODE": 358.961,
    "ARG_OF_PERICENTER": 104.7967,
    "MEAN_ANOMALY": 255.3171,
    "EPHEMERIS_TYPE": 0,
    "CLASSIFICATION_TYPE": "U",
    "NORAD_CAT_ID": 58047,
    "ELEMENT_SET_NO": 999,
    "REV_AT_EPOCH": 11683,
    "BSTAR": 0.00034551,
    "MEAN_MOTION_DOT": 9.892e-05,
    "MEAN_MOTION_DDOT": 0.0,
    "TLE_LINE1": "1 58047U 23156V   25315.17743084  .00009892  00000+0  34551-3 0  9999",
    "TLE_LINE2": "2 58047  53.1611 358.9610 0001241 104.7967 255.3171 15.30215114116833",
    "COMMENT": "Grouped by shell and plane from TLE"
  },
  {
    "OBJECT_NAME": "STARLINK-30554",
    "OBJECT_ID": "23156W",
    "EPOCH": "2025-11-11T06:22:49.617984",
    "MEAN_MOTION": 15.30186814,
    "ECCENTRICITY": 0.0001423,
    "INCLINATION": 53.1607,
    "RA_OF_ASC_NODE": 358.1038,
    "ARG_OF_PERICENTER": 56.5201,
    "MEAN_ANOMALY": 303.5935,
    "EPHEMERIS_TYPE": 0,
    "CLASSIFICATION_TYPE": "U",
    "NORAD_CAT_ID": 58048,
    "ELEMENT_SET_NO": 999,
    "REV_AT_EPOCH": 11685,
    "BSTAR": 0.00015913,
    "MEAN_MOTION_DOT": 4.355e-05,
    "MEAN_MOTION_DDOT": 0.0,
    "TLE_LINE1": "1 58048U 23156W   25315.26585206  .00004355  00000+0  15913-3 0  9990",
    "TLE_LINE2": "2 58048  53.1607 358.1038 0001423  56.5201 303.5935 15.30186814116852",
    "COMMENT": "Grouped by shell and plane from TLE"
  },
  {
    "OBJECT_NAME": "STARLINK-30594",
    "OBJECT_ID": "23161A",
    "EPOCH": "2025-11-11T06:49:17.078880",
    "MEAN_MOTION": 15.30210937,
    "ECCENTRICITY": 0.0001709,
    "INCLINATION": 53.1611,
    "RA_OF_ASC_NODE": 355.4849,
    "ARG_OF_PERICENTER": 84.7929,
    "MEAN_ANOMALY": 275.3267,
    "EPHEMERIS_TYPE": 0,
    "CLASSIFICATION_TYPE": "U",
    "NORAD_CAT_ID": 58097,
    "ELEMENT_SET_NO": 999,
    "REV_AT_EPOCH": 11629,
    "BSTAR": 6.537500000000001e-06,
    "MEAN_MOTION_DOT": -1.66e-06,
    "MEAN_MOTION_DDOT": 0.0,
    "TLE_LINE1": "1 58097U 23161A   25315.28422545 -.00000166  00000+0  65375-5 0  9994",
    "TLE_LINE2": "2 58097  53.1611 355.4849 0001709  84.7929 275.3267 15.30210937116294",
    "COMMENT": "Grouped by shell and plane from TLE"
  },
  {
    "OBJECT_NAME": "STARLINK-30614",
    "OBJECT_ID": "23161B",
    "EPOCH": "2025-11-11T06:44:44.015136",
    "MEAN_MOTION": 15.30186282,
    "ECCENTRICITY": 9.91e-05,
    "INCLINATION": 53.1606,
    "RA_OF_ASC_NODE": 355.4659,
    "ARG_OF_PERICENTER": 107.6638,
    "MEAN_ANOMALY": 252.4471,
    "EPHEMERIS_TYPE": 0,
    "CLASSIFICATION_TYPE": "U",
    "NORAD_CAT_ID": 58098,
    "ELEMENT_SET_NO": 999,
    "REV_AT_EPOCH": 11629,
    "BSTAR": 6.211200000000001e-06,
    "MEAN_MOTION_DOT": -1.75e-06,
    "MEAN_MOTION_DDOT": 0.0,
    "TLE_LINE1": "1 58098U 23161B   25315.28106499 -.00000175  00000+0  62112-5 0  9998",
    "TLE_LINE2": "2 58098  53.1606 355.4659 0000991 107.6638 252.4471 15.30186282116290",
    "COMMENT": "Grouped by shell and plane from TLE"
  },
  {
    "OBJECT_NAME": "STARLINK-30600",
    "OBJECT_ID": "23161D",
    "EPOCH": "2025-11-11T06:58:23.268576",
    "MEAN_MOTION": 15.30209693,
    "ECCENTRICITY": 0.0001267,
    "INCLINATION": 53.1614,
    "RA_OF_ASC_NODE": 355.5146,
    "ARG_OF_PERICENTER": 90.0035,
    "MEAN_ANOMALY": 270.1111,
    "EPHEMERIS_TYPE": 0,
    "CLASSIFICATION_TYPE": "U",
    "NORAD_CAT_ID": 58100,
    "ELEMENT_SET_NO": 999,
    "REV_AT_EPOCH": 11629,
    "BSTAR": 0.0001061,
    "MEAN_MOTION_DOT": 2.785e-05,
    "MEAN_MOTION_DDOT": 0.0,
    "TLE_LINE1": "1 58100U 23161D   25315.29054709  .00002785  00000+0  10610-3 0  9991",
    "TLE_LINE2": "2 58100  53.1614 355.5146 0001267  90.0035 270.1111 15.30209693116298",
    "COMMENT": "Grouped by shell and plane from TLE"
  },
  {
    "OBJECT_NAME": "STARLINK-30605",
    "OBJECT_ID": "23161E",
    "EPOCH": "2025-11-11T06:38:39.350112",
    "MEAN_MOTION": 15.30240276,
    "ECCENTRICITY": 0.0001397,
    "INCLINATION": 53.1593,
    "RA_OF_ASC_NODE": 355.4402,
    "ARG_OF_PERICENTER": 84.9963,
    "MEAN_ANOMALY": 275.1198,
    "EPHEMERIS_TYPE": 0,
    "CLASSIFICATION_TYPE": "U",
    "NORAD_CAT_ID": 58101,
    "ELEMENT_SET_NO": 999,
    "REV_AT_EPOCH": 11629,
    "BSTAR": 0.00063806,
    "MEAN_MOTION_DOT": 0.00018609,
    "MEAN_MOTION_DDOT": 0.0,
    "TLE_LINE1": "1 58101U 23161E   25315.27684433  .00018609  00000+0  63806-3 0  9990",
    "TLE_LINE2": "2 58101  53.1593 355.4402 0001397  84.9963 275.1198 15.30240276116297",
    "COMMENT": "Grouped by shell and plane from TLE"
  }
]